{
    "links": {
        "self": "http://www.neowsapp.com/rest/v1/neo/54088798?api_key=iIulBulltgU6a56xZRHN4H3l9WmuAYTsLGpBGhQ2"
    },
    "id": "54088798",
    "neo_reference_id": "54088798",
    "name": "(2020 VL6)",
    "designation": "2020 VL6",
    "nasa_jpl_url": "http://ssd.jpl.nasa.gov/sbdb.cgi?sstr=54088798",
    "absolute_magnitude_h": 24.404,
    "estimated_diameter": {
        "kilometers": {
            "estimated_diameter_min": 0.0349747788,
            "estimated_diameter_max": 0.0782059829
        },
        "meters": {
            "estimated_diameter_min": 34.9747788124,
            "estimated_diameter_max": 78.2059829227
        },
        "miles": {
            "estimated_diameter_min": 0.0217323133,
            "estimated_diameter_max": 0.0485949298
        },
        "feet": {
            "estimated_diameter_min": 114.746653319,
            "estimated_diameter_max": 256.581317012
        }
    },
    "is_potentially_hazardous_asteroid": false,
    "close_approach_data": [
        {
            "close_approach_date": "2020-10-18",
            "close_approach_date_full": "2020-Oct-18 06:22",
            "epoch_date_close_approach": 1603002120000,
            "relative_velocity": {
                "kilometers_per_second": "7.1546075483",
                "kilometers_per_hour": "25756.5871739641",
                "miles_per_hour": "16004.1416248445"
            },
            "miss_distance": {
                "astronomical": "0.0636520536",
                "lunar": "24.7606488504",
                "kilometers": "9522211.639685832",
                "miles": "5916827.9459432016"
            },
            "orbiting_body": "Earth"
        }
    ],
    "orbital_data": {
        "orbit_id": "3",
        "orbit_determination_date": "2020-11-25 05:21:38",
        "first_observation_date": "2020-11-10",
        "last_observation_date": "2020-11-22",
        "data_arc_in_days": 12,
        "observations_used": 22,
        "orbit_uncertainty": "8",
        "minimum_orbit_intersection": ".0612094",
        "jupiter_tisserand_invariant": "3.385",
        "epoch_osculation": "2459167.5",
        "eccentricity": ".5564119056216589",
        "semi_major_axis": "2.273153138271887",
        "inclination": "3.602483889611925",
        "ascending_node_longitude": "303.139715089416",
        "orbital_period": "1251.818796648948",
        "perihelion_distance": "1.008343668836172",
        "perihelion_argument": "80.81609879213006",
        "aphelion_distance": "3.537962607707601",
        "perihelion_time": "2459140.049972766823",
        "mean_anomaly": "7.894121601622639",
        "mean_motion": ".2875815581006618",
        "equinox": "J2000",
        "orbit_class": {
            "orbit_class_type": "APO",
            "orbit_class_description": "Near-Earth asteroid orbits which cross the Earth’s orbit similar to that of 1862 Apollo",
            "orbit_class_range": "a (semi-major axis) > 1.0 AU; q (perihelion) < 1.017 AU"
        }
    },
    "is_sentry_object": false
}